{"type": "FeatureCollection", "features": [{"type": "Feature", "properties": {"name": "New Mexico", "state": "NM", "source": "U.S. Census Bureau TIGERweb, States layer"}, "geometry": {"type": "Polygon", "coordinates": [[[-103.0647, 32.3347], [-103.0646, 32.9999], [-103.0437, 34.0036], [-103.0417, 36.5004], [-103.0023, 36.5009], [-103.0023, 37.0001], [-105.0292, 36.9927], [-105.1208, 36.9954], [-105.7079, 36.9959], [-106.8698, 36.9925], [-106.8783, 37.0001], [-109.0452, 36.999], [-109.05, 31.3323], [-108.2085, 31.3334], [-108.2085, 31.7837], [-106.5279, 31.7839], [-106.5274, 31.79], [-106.5471, 31.8073], [-106.5665, 31.8134], [-106.5772, 31.8104], [-106.5891, 31.8227], [-106.6028, 31.825], [-106.6053, 31.8277], [-106.6017, 31.8444], [-106.6148, 31.8464], [-106.6359, 31.8662], [-106.6292, 31.8837], [-106.6453, 31.8949], [-106.6455, 31.8987], [-106.6337, 31.9098], [-106.6129, 31.9204], [-106.6239, 31.9253], [-106.6287, 31.9236], [-106.6297, 31.9266], [-106.6225, 31.9349], [-106.6237, 31.9455], [-106.6143, 31.9516], [-106.6144, 31.956], [-106.6251, 31.9545], [-106.6243, 31.9611], [-106.6194, 31.9648], [-106.6196, 31.9716], [-106.6301, 31.9713], [-106.6395, 31.9803], [-106.6312, 31.9898], [-106.6194, 31.9947], [-106.6185, 32.0005], [-106.0829, 32.0027], [-104.8477, 32.0004], [-104.7721, 31.9975], [-104.7548, 31.9978], [-104.7546, 32.0005], [-104.7505, 32.0005], [-103.0645, 32.0004], [-103.0647, 32.3347]]]}}]}